NORAD_CAT_ID,OBJECT_NAME,OBJECT_TYPE,EPOCH,MEAN_MOTION,ECCENTRICITY,INCLINATION,RA_OF_ASC_NODE,ARG_OF_PERICENTER,MEAN_ANOMALY,BSTAR,MEAN_MOTION_DOT,MEAN_MOTION_DDOT,TLE_LINE0,TLE_LINE1,TLE_LINE2,SEMIMAJOR_AXIS,PERIOD,APOGEE,PERIGEE,DECAYED
53144.0,STARLINK-4100,PAYLOAD,2023-05-30 23:32:17,15.08857378,0.0001214,53.2186,44.8342,80.2792,279.8338,8.2573e-05,1.027e-05,0.0,0 STARLINK-4100,1 53144U 22083N   23150.98076043  .00001027  00000-0  82573-4 0  9999,2 53144  53.2186  44.8342 0001214  80.2792 279.8338 15.08857378 48818,6917.827,95.436,540.532,538.852,0.0
53144.0,STARLINK-4100,PAYLOAD,2023-05-31 02:43:03,15.08860171,0.0001233,53.2188,44.2392,84.6985,275.4148,0.00013896,1.926e-05,0.0,0 STARLINK-4100,1 53144U 22083N   23151.11323725  .00001926  00000-0  13896-3 0  9996,2 53144  53.2188  44.2392 0001233  84.6985 275.4148 15.08860171 48201,6917.819,95.436,540.537,538.831,0.0
53144.0,STARLINK-4100,PAYLOAD,2023-05-31 21:47:42,15.0884216,0.0001239,53.2182,40.6712,85.3077,274.8057,0.00018769,2.701e-05,0.0,0 STARLINK-4100,1 53144U 22083N   23151.90813226  .00002701  00000-0  18769-3 0  9999,2 53144  53.2182  40.6712 0001239  85.3077 274.8057 15.08842160 48320,6917.874,95.437,540.596,538.882,0.0
53144.0,STARLINK-4100,PAYLOAD,2023-06-01 02:33:51,15.08852559,0.0001189,53.2183,39.7792,82.9007,277.212,0.00032735,4.927e-05,0.0,0 STARLINK-4100,1 53144U 22083N   23152.10684817  .00004927  00000-0  32735-3 0  9995,2 53144  53.2183  39.7792 0001189  82.9007 277.2120 15.08852559 48981,6917.842,95.437,540.53,538.884,0.0
53144.0,STARLINK-4100,PAYLOAD,2023-06-01 21:38:29,15.08839912,0.0001212,53.2186,36.2098,83.7907,276.3224,0.00010458,1.377e-05,0.0,0 STARLINK-4100,1 53144U 22083N   23152.90173072  .00001377  00000-0  10458-3 0  9993,2 53144  53.2186  36.2098 0001212  83.7907 276.3224 15.08839912 48477,6917.881,95.438,540.584,538.907,0.0
53144.0,STARLINK-4100,PAYLOAD,2023-06-01 23:13:52,15.08841753,0.0001136,53.2184,35.913,81.9469,278.1652,3.5923e-05,2.84e-06,0.0,0 STARLINK-4100,1 53144U 22083N   23152.96796971  .00000284  00000-0  35923-4 0  9999,2 53144  53.2184  35.9130 0001136  81.9469 278.1652 15.08841753 49119,6917.875,95.437,540.526,538.954,0.0
53144.0,STARLINK-4100,PAYLOAD,2023-06-02 16:43:07,15.08835694,0.0001139,53.2185,32.6448,97.1934,262.9188,-3.8798e-05,-9.05e-06,0.0,0 STARLINK-4100,1 53144U 22083N   23153.69661373 -.00000905  00000-0 -38798-4 0  9992,2 53144  53.2185  32.6448 0001139  97.1934 262.9188 15.08835694 49229,6917.894,95.438,540.546,538.971,0.0
53144.0,STARLINK-4100,PAYLOAD,2023-06-02 21:29:17,15.08834518,0.000106,53.2175,31.7498,91.546,268.5653,-3.8929e-05,-9.07e-06,0.0,0 STARLINK-4100,1 53144U 22083N   23153.89533607 -.00000907  00000-0 -38929-4 0  9990,2 53144  53.2175  31.7498 0001060  91.5460 268.5653 15.08834518 48624,6917.897,95.438,540.495,539.029,0.0
53144.0,STARLINK-4100,PAYLOAD,2023-06-03 02:15:26,15.08835831,0.0001111,53.2178,30.8591,88.8982,271.2137,-2.1669e-05,-6.33e-06,0.0,0 STARLINK-4100,1 53144U 22083N   23154.09405548 -.00000633  00000-0 -21669-4 0  9994,2 53144  53.2178  30.8591 0001111  88.8982 271.2137 15.08835831 48656,6917.893,95.438,540.527,538.99,0.0
53144.0,STARLINK-4100,PAYLOAD,2023-06-03 21:20:04,15.08835366,0.0001095,53.2175,27.2909,91.6471,268.4647,0.00029833,4.463e-05,0.0,0 STARLINK-4100,1 53144U 22083N   23154.88893877  .00004463  00000-0  29833-3 0  9990,2 53144  53.2175  27.2909 0001095  91.6471 268.4647 15.08835366 48772,6917.895,95.438,540.517,539.002,0.0
53144.0,STARLINK-4100,PAYLOAD,2023-06-04 02:06:13,15.08850454,0.0001101,53.2176,26.3986,89.6145,270.4973,0.00013568,1.873e-05,0.0,0 STARLINK-4100,1 53144U 22083N   23155.08765157  .00001873  00000-0  13568-3 0  9992,2 53144  53.2176  26.3986 0001101  89.6145 270.4973 15.08850454 49435,6917.848,95.437,540.475,538.952,0.0
53144.0,STARLINK-4100,PAYLOAD,2023-06-04 19:35:28,15.08841303,0.0001126,53.2172,23.1268,91.52,268.5921,0.00017669,2.525e-05,0.0,0 STARLINK-4100,1 53144U 22083N   23155.81629750  .00002525  00000-0  17669-3 0  9992,2 53144  53.2172  23.1268 0001126  91.5200 268.5921 15.08841303 49546,6917.876,95.437,540.52,538.962,0.0
53144.0,STARLINK-4100,PAYLOAD,2023-06-04 21:10:51,15.08841898,0.0001143,53.2176,22.8293,91.9557,268.1566,0.0001901,2.739e-05,0.0,0 STARLINK-4100,1 53144U 22083N   23155.88253734  .00002739  00000-0  19010-3 0  9993,2 53144  53.2176  22.8293 0001143  91.9557 268.1566 15.08841898 48923,6917.875,95.437,540.53,538.949,0.0
53144.0,STARLINK-4100,PAYLOAD,2023-06-04 22:46:14,15.08844153,0.0001148,53.2176,22.532,90.9135,269.1989,0.00021905,3.2e-05,0.0,0 STARLINK-4100,1 53144U 22083N   23155.94877636  .00003200  00000-0  21905-3 0  9993,2 53144  53.2176  22.5320 0001148  90.9135 269.1989 15.08844153 48935,6917.868,95.437,540.527,538.939,0.0
53144.0,STARLINK-4100,PAYLOAD,2023-06-05 19:26:15,15.08841248,0.0001212,53.2184,18.6652,92.3601,267.753,-4.0852e-06,-3.53e-06,0.0,0 STARLINK-4100,1 53144U 22083N   23156.80989869 -.00000353  00000-0 -40852-5 0  9993,2 53144  53.2184  18.6652 0001212  92.3601 267.7530 15.08841248 49067,6917.877,95.437,540.58,538.903,0.0
53144.0,STARLINK-4100,PAYLOAD,2023-06-06 19:17:02,15.08844486,0.0001174,53.2184,14.2082,92.2741,267.8386,0.00012431,1.691e-05,0.0,0 STARLINK-4100,1 53144U 22083N   23157.80349825  .00001691  00000-0  12431-3 0  9990,2 53144  53.2184  14.2082 0001174  92.2741 267.8386 15.08844486 49211,6917.867,95.437,540.544,538.92,0.0
53144.0,STARLINK-4100,PAYLOAD,2023-06-07 01:38:34,15.08852498,0.0001133,53.2188,13.0183,88.2285,271.8837,0.00013638,1.884e-05,0.0,0 STARLINK-4100,1 53144U 22083N   23158.06845004  .00001884  00000-0  13638-3 0  9993,2 53144  53.2188  13.0183 0001133  88.2285 271.8837 15.08852498 49888,6917.842,95.437,540.491,538.923,0.0
53144.0,STARLINK-4100,PAYLOAD,2023-06-07 17:32:26,15.08833899,0.0001212,53.2195,10.0433,96.0068,264.1062,2.4816e-05,1.07e-06,0.0,0 STARLINK-4100,1 53144U 22083N   23158.73086459  .00000107  00000-0  24816-4 0  9996,2 53144  53.2195  10.0433 0001212  96.0068 264.1062 15.08833899 49985,6917.899,95.438,540.602,538.926,0.0
53144.0,STARLINK-4100,PAYLOAD,2023-06-07 20:43:12,15.08840423,0.0001045,53.2188,9.4492,93.0966,267.0146,8.358e-05,1.043e-05,0.0,0 STARLINK-4100,1 53144U 22083N   23158.86333954  .00001043  00000-0  83580-4 0  9998,2 53144  53.2188   9.4492 0001045  93.0966 267.0146 15.08840423 49371,6917.879,95.438,540.467,539.021,0.0
53144.0,STARLINK-4100,PAYLOAD,2023-06-07 22:18:35,15.08841817,0.0001061,53.2188,9.1519,94.9545,265.1568,9.079e-05,1.157e-05,0.0,0 STARLINK-4100,1 53144U 22083N   23158.92957885  .00001157  00000-0  90790-4 0  9997,2 53144  53.2188   9.1519 0001061  94.9545 265.1568 15.08841817 50017,6917.875,95.437,540.474,539.006,0.0
53144.0,STARLINK-4100,PAYLOAD,2023-06-08 14:12:27,15.08838469,0.0001147,53.2189,6.177,96.3485,263.7638,2.537e-05,1.16e-06,0.0,0 STARLINK-4100,1 53144U 22083N   23159.59198383  .00000116  00000-0  25370-4 0  9997,2 53144  53.2189   6.1770 0001147  96.3485 263.7638 15.08838469 49488,6917.885,95.438,540.544,538.957,0.0
53144.0,STARLINK-4100,PAYLOAD,2023-06-09 06:06:18,15.08841195,0.0001054,53.2184,3.2077,86.9208,273.1904,-5.47e-07,-2.96e-06,0.0,0 STARLINK-4100,1 53144U 22083N   23160.25438341 -.00000296  00000-0 -54700-6 0  9995,2 53144  53.2184   3.2077 0001054  86.9208 273.1904 15.08841195 49588,6917.877,95.437,540.471,539.013,0.0
53144.0,STARLINK-4100,PAYLOAD,2023-06-09 17:14:00,15.08838847,9.22e-05,53.2177,1.1247,87.8321,272.2777,5.3076e-05,5.57e-06,0.0,0 STARLINK-4100,1 53144U 22083N   23160.71806458  .00000557  00000-0  53076-4 0  9995,2 53144  53.2177   1.1247 0000922  87.8321 272.2777 15.08838847 50282,6917.884,95.438,540.387,539.111,0.0
53144.0,STARLINK-4100,PAYLOAD,2023-06-09 20:24:46,15.08839771,9.08e-05,53.2177,0.5297,87.1353,272.9743,5.5602e-05,5.97e-06,0.0,0 STARLINK-4100,1 53144U 22083N   23160.85054382  .00000597  00000-0  55602-4 0  9992,2 53144  53.2177   0.5297 0000908  87.1353 272.9743 15.08839771 49670,6917.881,95.438,540.374,539.118,0.0
53144.0,STARLINK-4100,PAYLOAD,2023-06-09 23:35:32,15.08844454,0.0001018,53.2179,359.934,93.791,266.3199,0.00010425,1.372e-05,0.0,0 STARLINK-4100,1 53144U 22083N   23160.98301931  .00001372  00000-0  10425-3 0  9996,2 53144  53.2179 359.9340 0001018  93.7910 266.3199 15.08844454 50327,6917.867,95.437,540.436,539.028,0.0
53144.0,STARLINK-4100,PAYLOAD,2023-06-10 15:29:24,15.08835502,9.59e-05,53.2177,356.9602,88.0864,272.0238,5.7179e-05,6.22e-06,0.0,0 STARLINK-4100,1 53144U 22083N   23161.64542754  .00000622  00000-0  57179-4 0  9995,2 53144  53.2177 356.9602 0000959  88.0864 272.0238 15.08835502 50424,6917.894,95.438,540.423,539.096,0.0
53144.0,STARLINK-4100,PAYLOAD,2023-06-10 20:15:33,15.08843705,0.0001039,53.2176,356.0688,85.6478,274.4633,0.00010494,1.383e-05,0.0,0 STARLINK-4100,1 53144U 22083N   23161.84414167  .00001383  00000-0  10494-3 0  9996,2 53144  53.2176 356.0688 0001039  85.6478 274.4633 15.08843705 49823,6917.869,95.437,540.453,539.015,0.0
53144.0,STARLINK-4100,PAYLOAD,2023-06-11 01:01:42,15.08848091,0.0001005,53.218,355.1757,87.2811,272.8296,0.00014111,1.959e-05,0.0,0 STARLINK-4100,1 53144U 22083N   23162.04285761  .00001959  00000-0  14111-3 0  9994,2 53144  53.2180 355.1757 0001005  87.2811 272.8296 15.08848091 50481,6917.856,95.437,540.416,539.025,0.0
53144.0,STARLINK-4100,PAYLOAD,2023-06-11 05:47:53,15.08836223,0.0001113,53.2182,354.2837,82.7091,277.4028,4.1473e-05,3.72e-06,0.0,0 STARLINK-4100,1 53144U 22083N   23162.24158785  .00000372  00000-0  41473-4 0  9991,2 53144  53.2182 354.2837 0001113  82.7091 277.4028 15.08836223 50514,6917.892,95.438,540.527,538.987,0.0
53144.0,STARLINK-4100,PAYLOAD,2023-06-11 12:09:25,15.08835275,9.8e-05,53.2177,353.0944,88.6767,271.4337,6.53e-05,7.52e-06,0.0,0 STARLINK-4100,1 53144U 22083N   23162.50654834  .00000752  00000-0  65300-4 0  9993,2 53144  53.2177 353.0944 0000980  88.6767 271.4337 15.08835275 49926,6917.895,95.438,540.438,539.082,0.0
